{
    "links": {
        "self": "http://www.neowsapp.com/rest/v1/neo/3409649?api_key=iIulBulltgU6a56xZRHN4H3l9WmuAYTsLGpBGhQ2"
    },
    "id": "3409649",
    "neo_reference_id": "3409649",
    "name": "(2008 HD2)",
    "designation": "2008 HD2",
    "nasa_jpl_url": "http://ssd.jpl.nasa.gov/sbdb.cgi?sstr=3409649",
    "absolute_magnitude_h": 25.0,
    "estimated_diameter": {
        "kilometers": {
            "estimated_diameter_min": 0.02658,
            "estimated_diameter_max": 0.0594346868
        },
        "meters": {
            "estimated_diameter_min": 26.58,
            "estimated_diameter_max": 59.4346868419
        },
        "miles": {
            "estimated_diameter_min": 0.0165160412,
            "estimated_diameter_max": 0.0369309908
        },
        "feet": {
            "estimated_diameter_min": 87.2047272,
            "estimated_diameter_max": 194.9956979785
        }
    },
    "is_potentially_hazardous_asteroid": false,
    "close_approach_data": [
        {
            "close_approach_date": "1914-10-17",
            "close_approach_date_full": "1914-Oct-17 00:59",
            "epoch_date_close_approach": -1742252460000,
            "relative_velocity": {
                "kilometers_per_second": "22.6053822892",
                "kilometers_per_hour": "81379.3762411333",
                "miles_per_hour": "50565.9796427198"
            },
            "miss_distance": {
                "astronomical": "0.3538262886",
                "lunar": "137.6384262654",
                "kilometers": "52931659.124565282",
                "miles": "32890207.8408016116"
            },
            "orbiting_body": "Earth"
        },
        {
            "close_approach_date": "2002-10-07",
            "close_approach_date_full": "2002-Oct-07 15:43",
            "epoch_date_close_approach": 1034005380000,
            "relative_velocity": {
                "kilometers_per_second": "10.605630936",
                "kilometers_per_hour": "38180.2713694286",
                "miles_per_hour": "23723.7358406319"
            },
            "miss_distance": {
                "astronomical": "0.0960869548",
                "lunar": "37.3778254172",
                "kilometers": "14374403.772866276",
                "miles": "8931840.3295195688"
            },
            "orbiting_body": "Mars"
        },
        {
            "close_approach_date": "2008-05-09",
            "close_approach_date_full": "2008-May-09 04:59",
            "epoch_date_close_approach": 1210309140000,
            "relative_velocity": {
                "kilometers_per_second": "11.7239683911",
                "kilometers_per_hour": "42206.2862077991",
                "miles_per_hour": "26225.3448939516"
            },
            "miss_distance": {
                "astronomical": "0.0166224637",
                "lunar": "6.4661383793",
                "kilometers": "2486685.163672319",
                "miles": "1545154.5109392422"
            },
            "orbiting_body": "Earth"
        }
    ],
    "orbital_data": {
        "orbit_id": "11",
        "orbit_determination_date": "2017-04-06 09:03:37",
        "first_observation_date": "2008-04-27",
        "last_observation_date": "2008-05-04",
        "data_arc_in_days": 7,
        "observations_used": 25,
        "orbit_uncertainty": "8",
        "minimum_orbit_intersection": ".00637266",
        "jupiter_tisserand_invariant": "4.499",
        "epoch_osculation": "2454586.5",
        "eccentricity": ".4457266940540335",
        "semi_major_axis": "1.465531997859062",
        "inclination": "2.97779903970368",
        "ascending_node_longitude": "40.60633493045495",
        "orbital_period": "648.0244386268669",
        "perihelion_distance": ".8123052654229395",
        "perihelion_argument": "255.5231738591843",
        "aphelion_distance": "2.118758730295184",
        "perihelion_time": "2454644.747689449658",
        "mean_anomaly": "327.6413928982223",
        "mean_motion": ".5555346041621871",
        "equinox": "J2000",
        "orbit_class": {
            "orbit_class_type": "APO",
            "orbit_class_description": "Near-Earth asteroid orbits which cross the Earth’s orbit similar to that of 1862 Apollo",
            "orbit_class_range": "a (semi-major axis) > 1.0 AU; q (perihelion) < 1.017 AU"
        }
    },
    "is_sentry_object": false
}